{
    "week": 295,
    "satellites": [
        {
            "Name": "BEIDOU-2 IGSO-1 (C06)",
            "Line1": "1 36828U 10036A   24339.46804543 -.00000046  00000+0  00000+0 0  9991",
            "Line2": "2 36828  54.2594 168.0221 0042929 205.5347 335.8628  1.00281437 52480",
            "SatelliteNumber": "36828",
            "Classification": "U",
            "LaunchYear": "10",
            "LaunchNumber": "036",
            "PieceOfLaunch": "A",
            "EpochYear": "24",
            "EpochDay": 339.46804543,
            "FirstDerivativeMeanMotion": -4.6e-07,
            "SecondDerivativeMeanMotion": "00000+0",
            "BSTAR": "00000+0",
            "SetNumber": "999",
            "Inclination": 54.2594,
            "RAAN": 168.0221,
            "Eccentricity": 0.0042929,
            "ArgumentOfPerigee": 205.5347,
            "MeanAnomaly": 335.8628,
            "MeanMotion": 1.00281437,
            "RevolutionNumber": "5248"
        },
        {
            "Name": "BEIDOU-2 G4 (C04)",
            "Line1": "1 37210U 10057A   24339.76456882 -.00000091  00000+0  00000+0 0  9992",
            "Line2": "2 37210   2.2589  70.1691 0009398 182.2514 256.9198  1.00272056 51679",
            "SatelliteNumber": "37210",
            "Classification": "U",
            "LaunchYear": "10",
            "LaunchNumber": "057",
            "PieceOfLaunch": "A",
            "EpochYear": "24",
            "EpochDay": 339.76456882,
            "FirstDerivativeMeanMotion": -9.1e-07,
            "SecondDerivativeMeanMotion": "00000+0",
            "BSTAR": "00000+0",
            "SetNumber": "999",
            "Inclination": 2.2589,
            "RAAN": 70.1691,
            "Eccentricity": 0.0009398,
            "ArgumentOfPerigee": 182.2514,
            "MeanAnomaly": 256.9198,
            "MeanMotion": 1.00272056,
            "RevolutionNumber": "5167"
        },
        {
            "Name": "BEIDOU-2 IGSO-2 (C07)",
            "Line1": "1 37256U 10068A   24334.73967046 -.00000205  00000+0  00000+0 0  9992",
            "Line2": "2 37256  48.5771 278.7994 0037686 218.6719 302.5714  1.00250110 51139",
            "SatelliteNumber": "37256",
            "Classification": "U",
            "LaunchYear": "10",
            "LaunchNumber": "068",
            "PieceOfLaunch": "A",
            "EpochYear": "24",
            "EpochDay": 334.73967046,
            "FirstDerivativeMeanMotion": -2.05e-06,
            "SecondDerivativeMeanMotion": "00000+0",
            "BSTAR": "00000+0",
            "SetNumber": "999",
            "Inclination": 48.5771,
            "RAAN": 278.7994,
            "Eccentricity": 0.0037686,
            "ArgumentOfPerigee": 218.6719,
            "MeanAnomaly": 302.5714,
            "MeanMotion": 1.0025011,
            "RevolutionNumber": "5113"
        },
        {
            "Name": "BEIDOU-2 IGSO-3 (C08)",
            "Line1": "1 37384U 11013A   24339.68230373 -.00000177  00000+0  00000+0 0  9998",
            "Line2": "2 37384  61.6012  45.4743 0031541 181.8712 199.4366  1.00265912 50067",
            "SatelliteNumber": "37384",
            "Classification": "U",
            "LaunchYear": "11",
            "LaunchNumber": "013",
            "PieceOfLaunch": "A",
            "EpochYear": "24",
            "EpochDay": 339.68230373,
            "FirstDerivativeMeanMotion": -1.77e-06,
            "SecondDerivativeMeanMotion": "00000+0",
            "BSTAR": "00000+0",
            "SetNumber": "999",
            "Inclination": 61.6012,
            "RAAN": 45.4743,
            "Eccentricity": 0.0031541,
            "ArgumentOfPerigee": 181.8712,
            "MeanAnomaly": 199.4366,
            "MeanMotion": 1.00265912,
            "RevolutionNumber": "5006"
        },
        {
            "Name": "BEIDOU-2 IGSO-4 (C09)",
            "Line1": "1 37763U 11038A   24339.00535337  .00000073  00000+0  00000+0 0  9994",
            "Line2": "2 37763  54.5643 170.6763 0130015 228.4152 132.5060  1.00272239 49038",
            "SatelliteNumber": "37763",
            "Classification": "U",
            "LaunchYear": "11",
            "LaunchNumber": "038",
            "PieceOfLaunch": "A",
            "EpochYear": "24",
            "EpochDay": 339.00535337,
            "FirstDerivativeMeanMotion": 7.3e-07,
            "SecondDerivativeMeanMotion": "00000+0",
            "BSTAR": "00000+0",
            "SetNumber": "999",
            "Inclination": 54.5643,
            "RAAN": 170.6763,
            "Eccentricity": 0.0130015,
            "ArgumentOfPerigee": 228.4152,
            "MeanAnomaly": 132.506,
            "MeanMotion": 1.00272239,
            "RevolutionNumber": "4903"
        },
        {
            "Name": "BEIDOU-2 IGSO-5 (C10)",
            "Line1": "1 37948U 11073A   24338.82193344 -.00000153  00000+0  00000+0 0  9995",
            "Line2": "2 37948  48.7062 278.4472 0102746 221.3615 322.6456  1.00294001 47785",
            "SatelliteNumber": "37948",
            "Classification": "U",
            "LaunchYear": "11",
            "LaunchNumber": "073",
            "PieceOfLaunch": "A",
            "EpochYear": "24",
            "EpochDay": 338.82193344,
            "FirstDerivativeMeanMotion": -1.53e-06,
            "SecondDerivativeMeanMotion": "00000+0",
            "BSTAR": "00000+0",
            "SetNumber": "999",
            "Inclination": 48.7062,
            "RAAN": 278.4472,
            "Eccentricity": 0.0102746,
            "ArgumentOfPerigee": 221.3615,
            "MeanAnomaly": 322.6456,
            "MeanMotion": 1.00294001,
            "RevolutionNumber": "4778"
        },
        {
            "Name": "BEIDOU-2 G5 (C05)",
            "Line1": "1 38091U 12008A   24339.53007817  .00000078  00000+0  00000+0 0  9997",
            "Line2": "2 38091   2.1787  70.9708 0011400 224.9506  27.4470  1.00270985 46751",
            "SatelliteNumber": "38091",
            "Classification": "U",
            "LaunchYear": "12",
            "LaunchNumber": "008",
            "PieceOfLaunch": "A",
            "EpochYear": "24",
            "EpochDay": 339.53007817,
            "FirstDerivativeMeanMotion": 7.8e-07,
            "SecondDerivativeMeanMotion": "00000+0",
            "BSTAR": "00000+0",
            "SetNumber": "999",
            "Inclination": 2.1787,
            "RAAN": 70.9708,
            "Eccentricity": 0.00114,
            "ArgumentOfPerigee": 224.9506,
            "MeanAnomaly": 27.447,
            "MeanMotion": 1.00270985,
            "RevolutionNumber": "4675"
        },
        {
            "Name": "BEIDOU-2 M3 (C11)",
            "Line1": "1 38250U 12018A   24339.14650044 -.00000049  00000+0  00000+0 0  9997",
            "Line2": "2 38250  56.2189 323.6755 0025373 267.9596  91.7511  1.86233576 85510",
            "SatelliteNumber": "38250",
            "Classification": "U",
            "LaunchYear": "12",
            "LaunchNumber": "018",
            "PieceOfLaunch": "A",
            "EpochYear": "24",
            "EpochDay": 339.14650044,
            "FirstDerivativeMeanMotion": -4.9e-07,
            "SecondDerivativeMeanMotion": "00000+0",
            "BSTAR": "00000+0",
            "SetNumber": "999",
            "Inclination": 56.2189,
            "RAAN": 323.6755,
            "Eccentricity": 0.0025373,
            "ArgumentOfPerigee": 267.9596,
            "MeanAnomaly": 91.7511,
            "MeanMotion": 1.86233576,
            "RevolutionNumber": "8551"
        },
        {
            "Name": "BEIDOU-2 M4 (C12)",
            "Line1": "1 38251U 12018B   24338.00315298 -.00000053  00000+0  00000+0 0  9996",
            "Line2": "2 38251  56.1248 322.9723 0016301 270.6465  89.1669  1.86232048 85495",
            "SatelliteNumber": "38251",
            "Classification": "U",
            "LaunchYear": "12",
            "LaunchNumber": "018",
            "PieceOfLaunch": "B",
            "EpochYear": "24",
            "EpochDay": 338.00315298,
            "FirstDerivativeMeanMotion": -5.3e-07,
            "SecondDerivativeMeanMotion": "00000+0",
            "BSTAR": "00000+0",
            "SetNumber": "999",
            "Inclination": 56.1248,
            "RAAN": 322.9723,
            "Eccentricity": 0.0016301,
            "ArgumentOfPerigee": 270.6465,
            "MeanAnomaly": 89.1669,
            "MeanMotion": 1.86232048,
            "RevolutionNumber": "8549"
        },
        {
            "Name": "BEIDOU-2 M6 (C14)",
            "Line1": "1 38775U 12050B   24339.32372297 -.00000004  00000+0  00000+0 0  9997",
            "Line2": "2 38775  56.0544  81.4842 0010848 339.6929  20.2646  1.86230908 82888",
            "SatelliteNumber": "38775",
            "Classification": "U",
            "LaunchYear": "12",
            "LaunchNumber": "050",
            "PieceOfLaunch": "B",
            "EpochYear": "24",
            "EpochDay": 339.32372297,
            "FirstDerivativeMeanMotion": -4e-08,
            "SecondDerivativeMeanMotion": "00000+0",
            "BSTAR": "00000+0",
            "SetNumber": "999",
            "Inclination": 56.0544,
            "RAAN": 81.4842,
            "Eccentricity": 0.0010848,
            "ArgumentOfPerigee": 339.6929,
            "MeanAnomaly": 20.2646,
            "MeanMotion": 1.86230908,
            "RevolutionNumber": "8288"
        }
    ]
}